{
    "links": {
        "self": "http://www.neowsapp.com/rest/v1/neo/3007053?api_key=iIulBulltgU6a56xZRHN4H3l9WmuAYTsLGpBGhQ2"
    },
    "id": "3007053",
    "neo_reference_id": "3007053",
    "name": "(1998 BR26)",
    "designation": "1998 BR26",
    "nasa_jpl_url": "http://ssd.jpl.nasa.gov/sbdb.cgi?sstr=3007053",
    "absolute_magnitude_h": 26.0,
    "estimated_diameter": {
        "kilometers": {
            "estimated_diameter_min": 0.0167708462,
            "estimated_diameter_max": 0.0375007522
        },
        "meters": {
            "estimated_diameter_min": 16.7708462163,
            "estimated_diameter_max": 37.5007521798
        },
        "miles": {
            "estimated_diameter_min": 0.0104209175,
            "estimated_diameter_max": 0.0233018799
        },
        "feet": {
            "estimated_diameter_min": 55.0224631002,
            "estimated_diameter_max": 123.0339677816
        }
    },
    "is_potentially_hazardous_asteroid": false,
    "close_approach_data": [
        {
            "close_approach_date": "1998-02-02",
            "close_approach_date_full": "1998-Feb-02 05:44",
            "epoch_date_close_approach": 886398240000,
            "relative_velocity": {
                "kilometers_per_second": "13.7256677347",
                "kilometers_per_hour": "49412.403844996",
                "miles_per_hour": "30702.9461557976"
            },
            "miss_distance": {
                "astronomical": "0.0147178778",
                "lunar": "5.7252544642",
                "kilometers": "2201763.169800286",
                "miles": "1368112.1935085068"
            },
            "orbiting_body": "Earth"
        },
        {
            "close_approach_date": "2000-06-13",
            "close_approach_date_full": "2000-Jun-13 04:33",
            "epoch_date_close_approach": 960870780000,
            "relative_velocity": {
                "kilometers_per_second": "13.2380539496",
                "kilometers_per_hour": "47656.9942187184",
                "miles_per_hour": "29612.2028799587"
            },
            "miss_distance": {
                "astronomical": "0.1736806106",
                "lunar": "67.5617575234",
                "kilometers": "25982249.406059422",
                "miles": "16144621.1448951436"
            },
            "orbiting_body": "Earth"
        }
    ],
    "orbital_data": {
        "orbit_id": "13",
        "orbit_determination_date": "2017-04-06 09:17:54",
        "first_observation_date": "1998-01-30",
        "last_observation_date": "1998-01-31",
        "data_arc_in_days": 1,
        "observations_used": 19,
        "orbit_uncertainty": "7",
        "minimum_orbit_intersection": ".015703",
        "jupiter_tisserand_invariant": "4.128",
        "epoch_osculation": "2459000.5",
        "eccentricity": ".489145364994565",
        "semi_major_axis": "1.641186909841927",
        "inclination": "12.23846438787932",
        "ascending_node_longitude": "129.9474033578329",
        "orbital_period": "767.9545067728581",
        "perihelion_distance": ".8384079398029953",
        "perihelion_argument": "62.0499404656497",
        "aphelion_distance": "2.443965879880858",
        "perihelion_time": "2459329.844711756779",
        "mean_anomaly": "205.6105209530222",
        "mean_motion": ".4687777685071638",
        "equinox": "J2000",
        "orbit_class": {
            "orbit_class_type": "APO",
            "orbit_class_description": "Near-Earth asteroid orbits which cross the Earth’s orbit similar to that of 1862 Apollo",
            "orbit_class_range": "a (semi-major axis) > 1.0 AU; q (perihelion) < 1.017 AU"
        }
    },
    "is_sentry_object": false
}